{"type": "FeatureCollection", "features": [ {"type": "Feature", "properties": {"norad_id": 66919, "name": "HULIANWANG DIGUI-109", "group": "last-30-days", "lat": 8.479417509949593, "lon": 68.62482052165552, "alt_km": 880.6628517724603, "timestamp": "2025-12-26T10:30:48.976327+00:00", "meta": {"OBJECT_NAME": "HULIANWANG DIGUI-109", "OBJECT_ID": "2025-285E", "EPOCH": "2025-12-26T07:02:29.417856", "MEAN_MOTION": 14.02802851, "ECCENTRICITY": 0.0006129, "INCLINATION": 50.0088, "RA_OF_ASC_NODE": 62.0246, "ARG_OF_PERICENTER": 319.6425, "MEAN_ANOMALY": 40.4023, "EPHEMERIS_TYPE": 0, "CLASSIFICATION_TYPE": "U", "NORAD_CAT_ID": 66919, "ELEMENT_SET_NO": 999, "REV_AT_EPOCH": 281, "BSTAR": 0.00012986, "MEAN_MOTION_DOT": 5.1e-07, "MEAN_MOTION_DDOT": 0}, "tle": {"line1": "1 66919U 25285E   25360.29339604  .00000051  00000+0  12986-3 0  9999", "line2": "2 66919  50.0088  62.0246 0006129 319.6425  40.4023 14.02802851  2817"}}, "geometry": {"type": "Point", "coordinates": [68.62482052165552, 8.479417509949593]}}, {"type": "Feature", "properties": {"norad_id": 66920, "name": "HULIANWANG DIGUI-110", "group": "last-30-days", "lat": 11.2679067590268, "lon": 71.05233177699192, "alt_km": 878.9831519470126, "timestamp": "2025-12-26T10:30:48.976337+00:00", "meta": {"OBJECT_NAME": "HULIANWANG DIGUI-110", "OBJECT_ID": "2025-285F", "EPOCH": "2025-12-26T05:18:57.181824", "MEAN_MOTION": 14.03224112, "ECCENTRICITY": 0.0004485, "INCLINATION": 50.0089, "RA_OF_ASC_NODE": 62.3068, "ARG_OF_PERICENTER": 337.6061, "MEAN_ANOMALY": 22.4646, "EPHEMERIS_TYPE": 0, "CLASSIFICATION_TYPE": "U", "NORAD_CAT_ID": 66920, "ELEMENT_SET_NO": 999, "REV_AT_EPOCH": 280, "BSTAR": 0.00010583, "MEAN_MOTION_DOT": 1.5e-07, "MEAN_MOTION_DDOT": 0}, "tle": {"line1": "1 66920U 25285F   25360.22149516  .00000015  00000+0  10583-3 0  9996", "line2": "2 66920  50.0089  62.3068 0004485 337.6061  22.4646 14.03224112  2803"}}, "geometry": {"type": "Point", "coordinates": [71.05233177699192, 11.2679067590268]}}, {"type": "Feature", "properties": {"norad_id": 66921, "name": "HULIANWANG DIGUI-111", "group": "last-30-days", "lat": 13.993716688058004, "lon": 73.50149353877298, "alt_km": 877.6469456397699, "timestamp": "2025-12-26T10:30:48.976349+00:00", "meta": {"OBJECT_NAME": "HULIANWANG DIGUI-111", "OBJECT_ID": "2025-285G", "EPOCH": "2025-12-26T03:35:24.403200", "MEAN_MOTION": 14.03346049, "ECCENTRICITY": 0.000534, "INCLINATION": 50.0117, "RA_OF_ASC_NODE": 62.6027, "ARG_OF_PERICENTER": 341.1949, "MEAN_ANOMALY": 18.8757, "EPHEMERIS_TYPE": 0, "CLASSIFICATION_TYPE": "U", "NORAD_CAT_ID": 66921, "ELEMENT_SET_NO": 999, "REV_AT_EPOCH": 279, "BSTAR": 0.00010783, "MEAN_MOTION_DOT": 1.8e-07, "MEAN_MOTION_DDOT": 0}, "tle": {"line1": "1 66921U 25285G   25360.14958800  .00000018  00000+0  10783-3 0  9997", "line2": "2 66921  50.0117  62.6027 0005340 341.1949  18.8757 14.03346049  2794"}}, "geometry": {"type": "Point", "coordinates": [73.50149353877298, 13.993716688058004]}}, {"type": "Feature", "properties": {"norad_id": 66922, "name": "HULIANWANG DIGUI-112", "group": "last-30-days", "lat": 18.32434801526564, "lon": 77.55084627668911, "alt_km": 875.8059742840123, "timestamp": "2025-12-26T10:30:48.976362+00:00", "meta": {"OBJECT_NAME": "HULIANWANG DIGUI-112", "OBJECT_ID": "2025-285H", "EPOCH": "2025-12-26T05:16:18.890112", "MEAN_MOTION": 14.03439224, "ECCENTRICITY": 0.0006558, "INCLINATION": 50.0102, "RA_OF_ASC_NODE": 62.3006, "ARG_OF_PERICENTER": 350.2518, "MEAN_ANOMALY": 9.8258, "EPHEMERIS_TYPE": 0, "CLASSIFICATION_TYPE": "U", "NORAD_CAT_ID": 66922, "ELEMENT_SET_NO": 999, "REV_AT_EPOCH": 280, "BSTAR": 0.00010957, "MEAN_MOTION_DOT": 2.1e-07, "MEAN_MOTION_DDOT": 0}, "tle": {"line1": "1 66922U 25285H   25360.21966308  .00000021  00000+0  10957-3 0  9995", "line2": "2 66922  50.0102  62.3006 0006558 350.2518   9.8258 14.03439224  2804"}}, "geometry": {"type": "Point", "coordinates": [77.55084627668911, 18.32434801526564]}}, {"type": "Feature", "properties": {"norad_id": 66923, "name": "HULIANWANG DIGUI-113", "group": "last-30-days", "lat": 23.08490989325059, "lon": 82.36255671848552, "alt_km": 876.2043855710144, "timestamp": "2025-12-26T10:30:48.976376+00:00", "meta": {"OBJECT_NAME": "HULIANWANG DIGUI-113", "OBJECT_ID": "2025-285J", "EPOCH": "2025-12-26T05:14:28.426848", "MEAN_MOTION": 14.03554526, "ECCENTRICITY": 0.0004967, "INCLINATION": 50.0098, "RA_OF_ASC_NODE": 62.2953, "ARG_OF_PERICENTER": 342.5966, "MEAN_ANOMALY": 17.4768, "EPHEMERIS_TYPE": 0, "CLASSIFICATION_TYPE": "U", "NORAD_CAT_ID": 66923, "ELEMENT_SET_NO": 999, "REV_AT_EPOCH": 280, "BSTAR": 0.00012075, "MEAN_MOTION_DOT": 3.9e-07, "MEAN_MOTION_DDOT": 0}, "tle": {"line1": "1 66923U 25285J   25360.21838457  .00000039  00000+0  12075-3 0  9991", "line2": "2 66923  50.0098  62.2953 0004967 342.5966  17.4768 14.03554526  2806"}}, "geometry": {"type": "Point", "coordinates": [82.36255671848552, 23.08490989325059]}}, {"type": "Feature", "properties": {"norad_id": 66924, "name": "CZ-8A R/B", "group": "last-30-days", "lat": 48.159070068759426, "lon": 127.47202207745799, "alt_km": 765.1914121520695, "timestamp": "2025-12-26T10:30:48.976387+00:00", "meta": {"OBJECT_NAME": "CZ-8A R/B", "OBJECT_ID": "2025-285K", "EPOCH": "2025-12-25T10:40:55.363008", "MEAN_MOTION": 14.30506687, "ECCENTRICITY": 0.0119239, "INCLINATION": 50.0085, "RA_OF_ASC_NODE": 62.0719, "ARG_OF_PERICENTER": 151.535, "MEAN_ANOMALY": 209.2146, "EPHEMERIS_TYPE": 0, "CLASSIFICATION_TYPE": "U", "NORAD_CAT_ID": 66924, "ELEMENT_SET_NO": 999, "REV_AT_EPOCH": 274, "BSTAR": 6.6135e-05, "MEAN_MOTION_DOT": 2.1e-07, "MEAN_MOTION_DDOT": 0}, "tle": {"line1": "1 66924U 25285K   25359.44508522  .00000021  00000+0  66135-4 0  9990", "line2": "2 66924  50.0085  62.0719 0119239 151.5350 209.2146 14.30506687  2744"}}, "geometry": {"type": "Point", "coordinates": [127.47202207745799, 48.159070068759426]}}, {"type": "Feature", "properties": {"norad_id": 66925, "name": "STARLINK-35945", "group": "last-30-days", "lat": -47.904563050258155, "lon": -73.84696732087026, "alt_km": 400.1807166072458, "timestamp": "2025-12-26T10:30:48.976397+00:00", "meta": {"OBJECT_NAME": "STARLINK-35945", "OBJECT_ID": "2025-286A", "EPOCH": "2025-12-26T04:00:01.998720", "MEAN_MOTION": 15.58785459, "ECCENTRICITY": 0.0001573, "INCLINATION": 53.1592, "RA_OF_ASC_NODE": 343.5562, "ARG_OF_PERICENTER": 83.8037, "MEAN_ANOMALY": 125.0578, "EPHEMERIS_TYPE": 0, "CLASSIFICATION_TYPE": "U", "NORAD_CAT_ID": 66925, "ELEMENT_SET_NO": 999, "REV_AT_EPOCH": 414, "BSTAR": -0.028739, "MEAN_MOTION_DOT": -0.01984869, "MEAN_MOTION_DDOT": 0}, "tle": {"line1": "1 66925U 25286A   25360.16668980 -.01984869  00000+0 -28739-1 0  9997", "line2": "2 66925  53.1592 343.5562 0001573  83.8037 125.0578 15.58785459  4142"}}, "geometry": {"type": "Point", "coordinates": [-73.84696732087026, -47.904563050258155]}}, {"type": "Feature", "properties": {"norad_id": 66926, "name": "STARLINK-35942", "group": "last-30-days", "lat": -53.1393591434869, "lon": -107.97119898565155, "alt_km": 406.03900903363865, "timestamp": "2025-12-26T10:30:48.976408+00:00", "meta": {"OBJECT_NAME": "STARLINK-35942", "OBJECT_ID": "2025-286B", "EPOCH": "2025-12-26T04:00:01.998720", "MEAN_MOTION": 15.56898808, "ECCENTRICITY": 0.0001603, "INCLINATION": 53.1594, "RA_OF_ASC_NODE": 343.5975, "ARG_OF_PERICENTER": 80.684, "MEAN_ANOMALY": 107.8765, "EPHEMERIS_TYPE": 0, "CLASSIFICATION_TYPE": "U", "NORAD_CAT_ID": 66926, "ELEMENT_SET_NO": 999, "REV_AT_EPOCH": 414, "BSTAR": -0.031796, "MEAN_MOTION_DOT": -0.0207591, "MEAN_MOTION_DDOT": 0}, "tle": {"line1": "1 66926U 25286B   25360.16668980 -.02075910  00000+0 -31796-1 0  9994", "line2": "2 66926  53.1594 343.5975 0001603  80.6840 107.8765 15.56898808  4141"}}, "geometry": {"type": "Point", "coordinates": [-107.97119898565155, -53.1393591434869]}}, {"type": "Feature", "properties": {"norad_id": 66927, "name": "STARLINK-35943", "group": "last-30-days", "lat": -53.103635015295005, "lon": -104.78354980018071, "alt_km": 405.96397015803814, "timestamp": "2025-12-26T10:30:48.976418+00:00", "meta": {"OBJECT_NAME": "STARLINK-35943", "OBJECT_ID": "2025-286C", "EPOCH": "2025-12-26T04:00:01.998720", "MEAN_MOTION": 15.56907686, "ECCENTRICITY": 0.0001498, "INCLINATION": 53.1595, "RA_OF_ASC_NODE": 343.5931, "ARG_OF_PERICENTER": 82.6769, "MEAN_ANOMALY": 107.7984, "EPHEMERIS_TYPE": 0, "CLASSIFICATION_TYPE": "U", "NORAD_CAT_ID": 66927, "ELEMENT_SET_NO": 999, "REV_AT_EPOCH": 414, "BSTAR": -0.032005, "MEAN_MOTION_DOT": -0.02088614, "MEAN_MOTION_DDOT": 0}, "tle": {"line1": "1 66927U 25286C   25360.16668980 -.02088614  00000+0 -32005-1 0  9994", "line2": "2 66927  53.1595 343.5931 0001498  82.6769 107.7984 15.56907686  4146"}}, "geometry": {"type": "Point", "coordinates": [-104.78354980018071, -53.103635015295005]}}, {"type": "Feature", "properties": {"norad_id": 66928, "name": "STARLINK-35944", "group": "last-30-days", "lat": -53.09013399189511, "lon": -111.14770832754184, "alt_km": 405.9669807104319, "timestamp": "2025-12-26T10:30:48.976428+00:00", "meta": {"OBJECT_NAME": "STARLINK-35944", "OBJECT_ID": "2025-286D", "EPOCH": "2025-12-26T04:00:01.998720", "MEAN_MOTION": 15.56910452, "ECCENTRICITY": 0.0001497, "INCLINATION": 53.1594, "RA_OF_ASC_NODE": 343.6003, "ARG_OF_PERICENTER": 79.9844, "MEAN_ANOMALY": 106.6573, "EPHEMERIS_TYPE": 0, "CLASSIFICATION_TYPE": "U", "NORAD_CAT_ID": 66928, "ELEMENT_SET_NO": 999, "REV_AT_EPOCH": 414, "BSTAR": -0.032078, "MEAN_MOTION_DOT": -0.02093075, "MEAN_MOTION_DDOT": 0}, "tle": {"line1": "1 66928U 25286D   25360.16668980 -.02093075  00000+0 -32078-1 0  9992", "line2": "2 66928  53.1594 343.6003 0001497  79.9844 106.6573 15.56910452  4146"}}, "geometry": {"type": "Point", "coordinates": [-111.14770832754184, -53.09013399189511]}}]}